import 'package:test/test.dart';

import 'package:metar_dart/metar_dart.dart';

void main() {
  final code =
      'KJFK 122051Z 32004KT 10SM OVC065 M02/M15 A3031 RMK AO2 SLP264 T10171150 56004';
  final metar = Metar(code);

  group('Test the station features of METAR', () {
    test('Test the name of station', () {
      final value = metar.station.name;
      expect(value, 'NY NYC/JFK ARPT');
    });

    test('Test the IATA code of station', () {
      final value = metar.station.iata;
      expect(value, 'JFK');
    });

    test('Test the SYNOP code of station', () {
      final value = metar.station.synop;
      expect(value, '74486');
    });

    test('Test the country of station', () {
      final value = metar.station.country;
      expect(value, 'United States of America (the)');
    });

    test('Test the latitude of station', () {
      final value = metar.station.latitude;
      expect(value, '40.38N');
    });

    test('Test the longitude of station', () {
      final value = metar.station.longitude;
      expect(value, '073.46W');
    });

    test('Test the elevation of station', () {
      final value = metar.station.elevation;
      expect(value, '9');
    });
  });
}
